STARLINK-35703          
1 66970U 25288M   25352.91667824 -.01411204  00000+0 -65979-2 0  9995
2 66970  43.0012 129.2667 0001705 279.3865  70.3728 15.85236559  2824
STARLINK-35678          
1 66971U 25288N   25352.91667824 -.01338212  00000+0 -62055-2 0  9995
2 66971  43.0015 129.3162 0001780 278.7666  51.6501 15.85243611  2822
STARLINK-34846          
1 66972U 25288P   25352.91667824 -.01353155  00000+0 -62876-2 0  9990
2 66972  43.0013 129.3093 0001797 276.3935  56.6811 15.85234183  2828
STARLINK-35778          
1 66973U 25288Q   25352.91667824 -.01359480  00000+0 -63218-2 0  9999
2 66973  43.0015 129.3033 0001741 279.0112  56.4742 15.85233077  2823
STARLINK-35780          
1 66974U 25288R   25352.91667824 -.01365052  00000+0 -63509-2 0  9995
2 66974  43.0015 129.2976 0001851 280.1919  57.6263 15.85233560  2827
STARLINK-35777          
1 66975U 25288S   25352.91667824 -.01375774  00000+0 -64078-2 0  9990
2 66975  43.0017 129.2854 0001774 278.6300  63.8820 15.85235429  2829
STARLINK-35772          
1 66976U 25288T   25352.91667824 -.01292456  00000+0 -92202-2 0  9996
2 66976  43.0007 129.4969 0002030 264.2571 353.9118 15.75447402  2823
STARLINK-35770          
1 66977U 25288U   25352.91667824 -.01392933  00000+0 -65034-2 0  9991
2 66977  43.0017 129.2789 0001809 278.6189  66.6384 15.85223429  2825
STARLINK-35787          
1 66978U 25288V   25352.91667824 -.01414077  00000+0 -66069-2 0  9995
2 66978  43.0018 129.2623 0001851 282.1631  69.6024 15.85254525  2828
STARLINK-36107          
1 66979U 25288W   25352.91667824 -.01450410  00000+0 -66547-2 0  9998
2 66979  43.0017 129.2556 0001763 281.2672  73.1844 15.85236748  2827
STARLINK-36086          
1 66980U 25288X   25352.91667824 -.01458142  00000+0 -66932-2 0  9998
2 66980  43.0017 129.2495 0001722 279.9607  76.7920 15.85241547  2825
STARLINK-36142          
1 66981U 25288Y   25352.91667824 -.01464686  00000+0 -67234-2 0  9995
2 66981  43.0018 129.2442 0001804 278.9299  79.9794 15.85251826  2821
