CCSDS_OMM_VERS = 2.0
CREATION_DATE  = 
ORIGINATOR     = 

OBJECT_NAME    = STARLINK-35703
OBJECT_ID      = 2025-288M
CENTER_NAME    = EARTH
REF_FRAME      = TEME
TIME_SYSTEM    = UTC
MEAN_ELEMENT_THEORY = SGP/SGP4

EPOCH          = 2025-12-18T22:00:00.999936
MEAN_MOTION    = 15.85236559
ECCENTRICITY   = .00017059
INCLINATION    = 43.0012
RA_OF_ASC_NODE = 129.2667
ARG_OF_PERICENTER = 279.3865
MEAN_ANOMALY   = 70.3728

EPHEMERIS_TYPE = 0
CLASSIFICATION_TYPE = U
NORAD_CAT_ID   = 66970
ELEMENT_SET_NO = 999
REV_AT_EPOCH   = 282
BSTAR          = -.65978723E-2
MEAN_MOTION_DOT = -.1411204E-1
MEAN_MOTION_DDOT = 0

CCSDS_OMM_VERS = 2.0
CREATION_DATE  = 
ORIGINATOR     = 

OBJECT_NAME    = STARLINK-35678
OBJECT_ID      = 2025-288N
CENTER_NAME    = EARTH
REF_FRAME      = TEME
TIME_SYSTEM    = UTC
MEAN_ELEMENT_THEORY = SGP/SGP4

EPOCH          = 2025-12-18T22:00:00.999936
MEAN_MOTION    = 15.85243611
ECCENTRICITY   = .000178
INCLINATION    = 43.0015
RA_OF_ASC_NODE = 129.3162
ARG_OF_PERICENTER = 278.7666
MEAN_ANOMALY   = 51.6501

EPHEMERIS_TYPE = 0
CLASSIFICATION_TYPE = U
NORAD_CAT_ID   = 66971
ELEMENT_SET_NO = 999
REV_AT_EPOCH   = 282
BSTAR          = -.62055008E-2
MEAN_MOTION_DOT = -.1338212E-1
MEAN_MOTION_DDOT = 0

CCSDS_OMM_VERS = 2.0
CREATION_DATE  = 
ORIGINATOR     = 

OBJECT_NAME    = STARLINK-34846
OBJECT_ID      = 2025-288P
CENTER_NAME    = EARTH
REF_FRAME      = TEME
TIME_SYSTEM    = UTC
MEAN_ELEMENT_THEORY = SGP/SGP4

EPOCH          = 2025-12-18T22:00:00.999936
MEAN_MOTION    = 15.85234183
ECCENTRICITY   = .00017972
INCLINATION    = 43.0013
RA_OF_ASC_NODE = 129.3093
ARG_OF_PERICENTER = 276.3935
MEAN_ANOMALY   = 56.6811

EPHEMERIS_TYPE = 0
CLASSIFICATION_TYPE = U
NORAD_CAT_ID   = 66972
ELEMENT_SET_NO = 999
REV_AT_EPOCH   = 282
BSTAR          = -.62875689E-2
MEAN_MOTION_DOT = -.1353155E-1
MEAN_MOTION_DDOT = 0

CCSDS_OMM_VERS = 2.0
CREATION_DATE  = 
ORIGINATOR     = 

OBJECT_NAME    = STARLINK-35778
OBJECT_ID      = 2025-288Q
CENTER_NAME    = EARTH
REF_FRAME      = TEME
TIME_SYSTEM    = UTC
MEAN_ELEMENT_THEORY = SGP/SGP4

EPOCH          = 2025-12-18T22:00:00.999936
MEAN_MOTION    = 15.85233077
ECCENTRICITY   = .00017415
INCLINATION    = 43.0015
RA_OF_ASC_NODE = 129.3033
ARG_OF_PERICENTER = 279.0112
MEAN_ANOMALY   = 56.4742

EPHEMERIS_TYPE = 0
CLASSIFICATION_TYPE = U
NORAD_CAT_ID   = 66973
ELEMENT_SET_NO = 999
REV_AT_EPOCH   = 282
BSTAR          = -.63217771E-2
MEAN_MOTION_DOT = -.135948E-1
MEAN_MOTION_DDOT = 0

CCSDS_OMM_VERS = 2.0
CREATION_DATE  = 
ORIGINATOR     = 

OBJECT_NAME    = STARLINK-35780
OBJECT_ID      = 2025-288R
CENTER_NAME    = EARTH
REF_FRAME      = TEME
TIME_SYSTEM    = UTC
MEAN_ELEMENT_THEORY = SGP/SGP4

EPOCH          = 2025-12-18T22:00:00.999936
MEAN_MOTION    = 15.85233560
ECCENTRICITY   = .00018516
INCLINATION    = 43.0015
RA_OF_ASC_NODE = 129.2976
ARG_OF_PERICENTER = 280.1919
MEAN_ANOMALY   = 57.6263

EPHEMERIS_TYPE = 0
CLASSIFICATION_TYPE = U
NORAD_CAT_ID   = 66974
ELEMENT_SET_NO = 999
REV_AT_EPOCH   = 282
BSTAR          = -.63508571E-2
MEAN_MOTION_DOT = -.1365052E-1
MEAN_MOTION_DDOT = 0

CCSDS_OMM_VERS = 2.0
CREATION_DATE  = 
ORIGINATOR     = 

OBJECT_NAME    = STARLINK-35777
OBJECT_ID      = 2025-288S
CENTER_NAME    = EARTH
REF_FRAME      = TEME
TIME_SYSTEM    = UTC
MEAN_ELEMENT_THEORY = SGP/SGP4

EPOCH          = 2025-12-18T22:00:00.999936
MEAN_MOTION    = 15.85235429
ECCENTRICITY   = .00017742
INCLINATION    = 43.0017
RA_OF_ASC_NODE = 129.2854
ARG_OF_PERICENTER = 278.6300
MEAN_ANOMALY   = 63.8820

EPHEMERIS_TYPE = 0
CLASSIFICATION_TYPE = U
NORAD_CAT_ID   = 66975
ELEMENT_SET_NO = 999
REV_AT_EPOCH   = 282
BSTAR          = -.64078088E-2
MEAN_MOTION_DOT = -.1375774E-1
MEAN_MOTION_DDOT = 0

CCSDS_OMM_VERS = 2.0
CREATION_DATE  = 
ORIGINATOR     = 

OBJECT_NAME    = STARLINK-35772
OBJECT_ID      = 2025-288T
CENTER_NAME    = EARTH
REF_FRAME      = TEME
TIME_SYSTEM    = UTC
MEAN_ELEMENT_THEORY = SGP/SGP4

EPOCH          = 2025-12-18T22:00:00.999936
MEAN_MOTION    = 15.75447402
ECCENTRICITY   = .00020306
INCLINATION    = 43.0007
RA_OF_ASC_NODE = 129.4969
ARG_OF_PERICENTER = 264.2571
MEAN_ANOMALY   = 353.9118

EPHEMERIS_TYPE = 0
CLASSIFICATION_TYPE = U
NORAD_CAT_ID   = 66976
ELEMENT_SET_NO = 999
REV_AT_EPOCH   = 282
BSTAR          = -.92201828E-2
MEAN_MOTION_DOT = -.1292456E-1
MEAN_MOTION_DDOT = 0

CCSDS_OMM_VERS = 2.0
CREATION_DATE  = 
ORIGINATOR     = 

OBJECT_NAME    = STARLINK-35770
OBJECT_ID      = 2025-288U
CENTER_NAME    = EARTH
REF_FRAME      = TEME
TIME_SYSTEM    = UTC
MEAN_ELEMENT_THEORY = SGP/SGP4

EPOCH          = 2025-12-18T22:00:00.999936
MEAN_MOTION    = 15.85223429
ECCENTRICITY   = .00018093
INCLINATION    = 43.0017
RA_OF_ASC_NODE = 129.2789
ARG_OF_PERICENTER = 278.6189
MEAN_ANOMALY   = 66.6384

EPHEMERIS_TYPE = 0
CLASSIFICATION_TYPE = U
NORAD_CAT_ID   = 66977
ELEMENT_SET_NO = 999
REV_AT_EPOCH   = 282
BSTAR          = -.65033605E-2
MEAN_MOTION_DOT = -.1392933E-1
MEAN_MOTION_DDOT = 0

CCSDS_OMM_VERS = 2.0
CREATION_DATE  = 
ORIGINATOR     = 

OBJECT_NAME    = STARLINK-35787
OBJECT_ID      = 2025-288V
CENTER_NAME    = EARTH
REF_FRAME      = TEME
TIME_SYSTEM    = UTC
MEAN_ELEMENT_THEORY = SGP/SGP4

EPOCH          = 2025-12-18T22:00:00.999936
MEAN_MOTION    = 15.85254525
ECCENTRICITY   = .00018519
INCLINATION    = 43.0018
RA_OF_ASC_NODE = 129.2623
ARG_OF_PERICENTER = 282.1631
MEAN_ANOMALY   = 69.6024

EPHEMERIS_TYPE = 0
CLASSIFICATION_TYPE = U
NORAD_CAT_ID   = 66978
ELEMENT_SET_NO = 999
REV_AT_EPOCH   = 282
BSTAR          = -.66068988E-2
MEAN_MOTION_DOT = -.1414077E-1
MEAN_MOTION_DDOT = 0

CCSDS_OMM_VERS = 2.0
CREATION_DATE  = 
ORIGINATOR     = 

OBJECT_NAME    = STARLINK-36107
OBJECT_ID      = 2025-288W
CENTER_NAME    = EARTH
REF_FRAME      = TEME
TIME_SYSTEM    = UTC
MEAN_ELEMENT_THEORY = SGP/SGP4

EPOCH          = 2025-12-18T22:00:00.999936
MEAN_MOTION    = 15.85236748
ECCENTRICITY   = .0001763
INCLINATION    = 43.0017
RA_OF_ASC_NODE = 129.2556
ARG_OF_PERICENTER = 281.2672
MEAN_ANOMALY   = 73.1844

EPHEMERIS_TYPE = 0
CLASSIFICATION_TYPE = U
NORAD_CAT_ID   = 66979
ELEMENT_SET_NO = 999
REV_AT_EPOCH   = 282
BSTAR          = -.66546597E-2
MEAN_MOTION_DOT = -.145041E-1
MEAN_MOTION_DDOT = 0

CCSDS_OMM_VERS = 2.0
CREATION_DATE  = 
ORIGINATOR     = 

OBJECT_NAME    = STARLINK-36086
OBJECT_ID      = 2025-288X
CENTER_NAME    = EARTH
REF_FRAME      = TEME
TIME_SYSTEM    = UTC
MEAN_ELEMENT_THEORY = SGP/SGP4

EPOCH          = 2025-12-18T22:00:00.999936
MEAN_MOTION    = 15.85241547
ECCENTRICITY   = .00017226
INCLINATION    = 43.0017
RA_OF_ASC_NODE = 129.2495
ARG_OF_PERICENTER = 279.9607
MEAN_ANOMALY   = 76.7920

EPHEMERIS_TYPE = 0
CLASSIFICATION_TYPE = U
NORAD_CAT_ID   = 66980
ELEMENT_SET_NO = 999
REV_AT_EPOCH   = 282
BSTAR          = -.66932428E-2
MEAN_MOTION_DOT = -.1458142E-1
MEAN_MOTION_DDOT = 0

CCSDS_OMM_VERS = 2.0
CREATION_DATE  = 
ORIGINATOR     = 

OBJECT_NAME    = STARLINK-36142
OBJECT_ID      = 2025-288Y
CENTER_NAME    = EARTH
REF_FRAME      = TEME
TIME_SYSTEM    = UTC
MEAN_ELEMENT_THEORY = SGP/SGP4

EPOCH          = 2025-12-18T22:00:00.999936
MEAN_MOTION    = 15.85251826
ECCENTRICITY   = .00018041
INCLINATION    = 43.0018
RA_OF_ASC_NODE = 129.2442
ARG_OF_PERICENTER = 278.9299
MEAN_ANOMALY   = 79.9794

EPHEMERIS_TYPE = 0
CLASSIFICATION_TYPE = U
NORAD_CAT_ID   = 66981
ELEMENT_SET_NO = 999
REV_AT_EPOCH   = 282
BSTAR          = -.67234376E-2
MEAN_MOTION_DOT = -.1464686E-1
MEAN_MOTION_DDOT = 0

